GLOBALSTAR M075         
1 37192U 10054E   25232.80091882 -.00000085  00000+0  10477-3 0  9997
2 37192  51.9976 344.8039 0000708 104.6044  61.0113 12.62266763684007
GLOBALSTAR M073         
1 37193U 10054F   25234.53660890 -.00000079  00000+0  14039-3 0  9992
2 37193  52.0040 253.3890 0000449 102.2809  34.6055 12.62262152686210
GLOBALSTAR M083         
1 37739U 11033A   25234.31881330 -.00000109  00000+0 -30375-4 0  9993
2 37739  51.9845 202.6922 0000445  54.8924 110.6762 12.62274916655202
GLOBALSTAR M088         
1 37740U 11033B   25234.57401072 -.00000071  00000+0  18255-3 0  9993
2 37740  52.0208 107.6179 0000668  58.6732 307.6204 12.62267417650788
GLOBALSTAR M091         
1 37741U 11033C   25232.86622499 -.00000094  00000+0  54116-4 0  9994
2 37741  51.9993  76.2210 0000897  58.7983  44.4072 12.62269734651355
GLOBALSTAR M085         
1 37742U 11033D   25232.78218361 -.00000109  00000+0 -28317-4 0  9997
2 37742  52.0145  27.5062 0000883  74.5074  66.6101 12.62263931651850
GLOBALSTAR M081         
1 37743U 11033E   25232.89141890 -.00000101  00000+0  16639-4 0  9997
2 37743  51.9974  29.9534 0000999  85.9920  70.4803 12.62267620652013
GLOBALSTAR M089         
1 37744U 11033F   25232.77436453 -.00000100  00000+0  18667-4 0  9999
2 37744  51.9957 344.5267 0000799 123.5652  41.7083 12.62265694652844
